[{"OBJECT_NAME":"S-NET A","OBJECT_ID":"2018-014J","EPOCH":"2026-03-09T17:45:22.875840","MEAN_MOTION":15.15637105,"ECCENTRICITY":0.00092363,"INCLINATION":97.5446,"RA_OF_ASC_NODE":334.3608,"ARG_OF_PERICENTER":10.8145,"MEAN_ANOMALY":349.3285,"EPHEMERIS_TYPE":0,"CLASSIFICATION_TYPE":"U","NORAD_CAT_ID":43188,"ELEMENT_SET_NO":999,"REV_AT_EPOCH":44369,"BSTAR":0.00039378194,"MEAN_MOTION_DOT":7.428e-5,"MEAN_MOTION_DDOT":0},{"OBJECT_NAME":"OTTER","OBJECT_ID":"2025-276Q","EPOCH":"2026-03-09T17:25:56.068896","MEAN_MOTION":15.18022658,"ECCENTRICITY":0.00054717,"INCLINATION":97.4276,"RA_OF_ASC_NODE":143.8857,"ARG_OF_PERICENTER":0.7152,"MEAN_ANOMALY":359.4088,"EPHEMERIS_TYPE":0,"CLASSIFICATION_TYPE":"U","NORAD_CAT_ID":66680,"ELEMENT_SET_NO":999,"REV_AT_EPOCH":1531,"BSTAR":0.00035224337,"MEAN_MOTION_DOT":7.104e-5,"MEAN_MOTION_DDOT":0}]
